$$SOE
2460154.500000000, A.D. 2023-Jul-29 00:00:00.0000, 1.061776933388242E+06, 4.310385711746811E+08, -9.294370821276188E+06,
2460161.500000000, A.D. 2023-Aug-05 00:00:00.0000, -9.935987085879367E+06, 4.302417227363768E+08, -9.176492349170178E+06,
2460168.500000000, A.D. 2023-Aug-12 00:00:00.0000, -2.092766861502608E+07, 4.291829939659327E+08, -9.053027941398650E+06,
2460175.500000000, A.D. 2023-Aug-19 00:00:00.0000, -3.190652304346517E+07, 4.278618125357633E+08, -8.924026948207408E+06,
2460182.500000000, A.D. 2023-Aug-26 00:00:00.0000, -4.286575324578004E+07, 4.262778026774046E+08, -8.789543466899574E+06,
2460189.500000000, A.D. 2023-Sep-02 00:00:00.0000, -5.379851634933502E+07, 4.244307888416675E+08, -8.649636356984764E+06,
2460196.500000000, A.D. 2023-Sep-09 00:00:00.0000, -6.469793073573459E+07, 4.223207989765484E+08, -8.504369258562624E+06,
2460203.500000000, A.D. 2023-Sep-16 00:00:00.0000, -7.555708309585948E+07, 4.199480673468494E+08, -8.353810633766115E+06,
2460210.500000000, A.D. 2023-Sep-23 00:00:00.0000, -8.636903510919550E+07, 4.173130371649672E+08, -8.198033845669717E+06,
2460217.500000000, A.D. 2023-Sep-30 00:00:00.0000, -9.712683007306685E+07, 4.144163642081780E+08, -8.037117145996213E+06,
2460224.500000000, A.D. 2023-Oct-07 00:00:00.0000, -1.078235018184883E+08, 4.112589208654000E+08, -7.871143400054395E+06,
2460231.500000000, A.D. 2023-Oct-14 00:00:00.0000, -1.184520848536446E+08, 4.078417972824158E+08, -7.700199914469212E+06,
2460238.500000000, A.D. 2023-Oct-21 00:00:00.0000, -1.290056224904142E+08, 4.041663011925923E+08, -7.524378532175273E+06,
2460245.500000000, A.D. 2023-Oct-28 00:00:00.0000, -1.394771743600693E+08, 4.002339586844499E+08, -7.343775679425180E+06,
2460252.500000000, A.D. 2023-Nov-04 00:00:00.0000, -1.498598245454955E+08, 3.960465151258698E+08, -7.158492313114196E+06,
2460259.500000000, A.D. 2023-Nov-11 00:00:00.0000, -1.601466901286455E+08, 3.916059356341174E+08, -6.968633833440125E+06,
2460266.500000000, A.D. 2023-Nov-18 00:00:00.0000, -1.703309299091297E+08, 3.869144050170994E+08, -6.774309986962169E+06,
2460273.500000000, A.D. 2023-Nov-25 00:00:00.0000, -1.804057531959269E+08, 3.819743271985669E+08, -6.575634764523476E+06,
2460280.500000000, A.D. 2023-Dec-02 00:00:00.0000, -1.903644286194943E+08, 3.767883241072094E+08, -6.372726297144488E+06,
2460287.500000000, A.D. 2023-Dec-09 00:00:00.0000, -2.002002928632244E+08, 3.713592339646400E+08, -6.165706761611074E+06,
2460294.500000000, A.D. 2023-Dec-16 00:00:00.0000, -2.099067590039844E+08, 3.656901089828336E+08, -5.954702321194321E+06,
2460301.500000000, A.D. 2023-Dec-23 00:00:00.0000, -2.194773240899396E+08, 3.597842131603317E+08, -5.739843077726975E+06,
2460308.500000000, A.D. 2023-Dec-30 00:00:00.0000, -2.289055772715680E+08, 3.536450212318411E+08, -5.521262827151448E+06,
2460315.500000000, A.D. 2024-Jan-06 00:00:00.0000, -2.381852102309352E+08, 3.472762164179135E+08, -5.299098649817109E+06,
2460322.500000000, A.D. 2024-Jan-13 00:00:00.0000, -2.473100267059814E+08, 3.406816851713638E+08, -5.073490774491981E+06,
2460329.500000000, A.D. 2024-Jan-20 00:00:00.0000, -2.562739498602297E+08, 3.338655120084952E+08, -4.844582576480433E+06,
2460336.500000000, A.D. 2024-Jan-27 00:00:00.0000, -2.650710295025394E+08, 3.268319750872000E+08, -4.612520471382931E+06,
2460343.500000000, A.D. 2024-Feb-03 00:00:00.0000, -2.736954495589731E+08, 3.195855415940158E+08, -4.377453743504643E+06,
2460350.500000000, A.D. 2024-Feb-10 00:00:00.0000, -2.821415354940510E+08, 3.121308626592448E+08, -4.139534358693436E+06,
2460357.500000000, A.D. 2024-Feb-17 00:00:00.0000, -2.904037615196216E+08, 3.044727678200495E+08, -3.898916774272636E+06,
2460364.500000000, A.D. 2024-Feb-24 00:00:00.0000, -2.984767575342796E+08, 2.966162590608328E+08, -3.655757748824209E+06,
2460371.500000000, A.D. 2024-Mar-02 00:00:00.0000, -3.063553157443335E+08, 2.885665044154181E+08, -3.410216157863781E+06,
2460378.500000000, A.D. 2024-Mar-09 00:00:00.0000, -3.140343968089338E+08, 2.803288310873589E+08, -3.162452833962739E+06,
2460385.500000000, A.D. 2024-Mar-16 00:00:00.0000, -3.215091350963246E+08, 2.719087183063313E+08, -2.912630452097878E+06,
2460392.500000000, A.D. 2024-Mar-23 00:00:00.0000, -3.287748431384875E+08, 2.633117910513085E+08, -2.660913360741094E+06,
2460399.500000000, A.D. 2024-Mar-30 00:00:00.0000, -3.358270175116391E+08, 2.545438146372302E+08, -2.407467156121001E+06,
2460406.500000000, A.D. 2024-Apr-06 00:00:00.0000, -3.426613458731220E+08, 2.456106868234403E+08, -2.152458299166426E+06,
2460413.500000000, A.D. 2024-Apr-13 00:00:00.0000, -3.492737115879049E+08, 2.365184283036868E+08, -1.896054032760322E+06,
2460420.500000000, A.D. 2024-Apr-20 00:00:00.0000, -3.556601968860823E+08, 2.272731742758338E+08, -1.638422293584645E+06,
2460427.500000000, A.D. 2024-Apr-27 00:00:00.0000, -3.618170860626913E+08, 2.178811665554802E+08, -1.379731526145548E+06,
2460434.500000000, A.D. 2024-May-04 00:00:00.0000, -3.677408686259823E+08, 2.083487455571741E+08, -1.120150465207353E+06,
2460441.500000000, A.D. 2024-May-11 00:00:00.0000, -3.734282421505631E+08, 1.986823420674998E+08, -8.598479172549695E+05,
2460448.500000000, A.D. 2024-May-18 00:00:00.0000, -3.788761147503720E+08, 1.888884688573785E+08, -5.989925471203029E+05,
2460455.500000000, A.D. 2024-May-25 00:00:00.0000, -3.840816071458792E+08, 1.789737121522530E+08, -3.377526729837209E+05,
2460462.500000000, A.D. 2024-Jun-01 00:00:00.0000, -3.890420542666712E+08, 1.689447229284400E+08, -7.629608025164157E+04,
2460469.500000000, A.D. 2024-Jun-08 00:00:00.0000, -3.937550061457499E+08, 1.588082080380379E+08, 1.852101209592670E+05,
2460476.500000000, A.D. 2024-Jun-15 00:00:00.0000, -3.982182277102562E+08, 1.485709217320840E+08, 4.465996024284586E+05,
2460483.500000000, A.D. 2024-Jun-22 00:00:00.0000, -4.024296984802129E+08, 1.382396587806215E+08, 7.077070765460208E+05,
2460490.500000000, A.D. 2024-Jun-29 00:00:00.0000, -4.063876143068371E+08, 1.278212473922305E+08, 9.683687525552735E+05,
2460497.500000000, A.D. 2024-Jul-06 00:00:00.0000, -4.100903885163750E+08, 1.173225394864644E+08, 1.228422545470268E+06,
2460504.500000000, A.D. 2024-Jul-13 00:00:00.0000, -4.135366505183785E+08, 1.067504011657660E+08, 1.487708089724131E+06,
2460511.500000000, A.D. 2024-Jul-20 00:00:00.0000, -4.167252438746053E+08, 9.611170455457689E+07, 1.746066833408028E+06,
2460518.500000000, A.D. 2024-Jul-27 00:00:00.0000, -4.196552244989727E+08, 8.541332006581333E+07, 2.003342194376968E+06,
2460525.500000000, A.D. 2024-Aug-03 00:00:00.0000, -4.223258587292239E+08, 7.466210873977697E+07, 2.259379722215064E+06,
2460532.500000000, A.D. 2024-Aug-10 00:00:00.0000, -4.247366211166027E+08, 6.386491466860539E+07, 2.514027250335254E+06,
2460539.500000000, A.D. 2024-Aug-17 00:00:00.0000, -4.268871918991474E+08, 5.302855754231427E+07, 2.767135035462916E+06,
2460546.500000000, A.D. 2024-Aug-24 00:00:00.0000, -4.287774541465199E+08, 4.215982530622993E+07, 3.018555879779078E+06,
2460553.500000000, A.D. 2024-Aug-31 00:00:00.0000, -4.304074904795550E+08, 3.126546687969206E+07, 3.268145219596822E+06,
2460560.500000000, A.D. 2024-Sep-07 00:00:00.0000, -4.317775790192989E+08, 2.035218507403938E+07, 3.515761156853645E+06,
2460567.500000000, A.D. 2024-Sep-14 00:00:00.0000, -4.328881884999807E+08, 9.426630717162475E+06, 3.761264506575680E+06,
2460574.500000000, A.D. 2024-Sep-21 00:00:00.0000, -4.337399745936123E+08, -1.504601593059619E+06, 4.004519079793625E+06,
2460581.500000000, A.D. 2024-Sep-28 00:00:00.0000, -4.343337779535766E+08, -1.243497932608689E+07, 4.245391982566211E+06,
2460588.500000000, A.D. 2024-Oct-05 00:00:00.0000, -4.346706203267451E+08, -2.335803943726738E+07, 4.483753594634355E+06,
2460595.500000000, A.D. 2024-Oct-12 00:00:00.0000, -4.347516991103628E+08, -3.426739438128775E+07, 4.719477504580811E+06,
2460602.500000000, A.D. 2024-Oct-19 00:00:00.0000, -4.345783821202482E+08, -4.515673698878412E+07, 4.952440540064862E+06,
2460609.500000000, A.D. 2024-Oct-26 00:00:00.0000, -4.341522026209874E+08, -5.601984500644156E+07, 5.182522830558205E+06,
2460616.500000000, A.D. 2024-Nov-02 00:00:00.0000, -4.334748543794726E+08, -6.685058544774922E+07, 5.409607866928946E+06,
2460623.500000000, A.D. 2024-Nov-09 00:00:00.0000, -4.325481866626413E+08, -7.764291873304519E+07, 5.633582550926398E+06,
2460630.500000000, A.D. 2024-Nov-16 00:00:00.0000, -4.313741991700097E+08, -8.839090261912975E+07, 5.854337232480288E+06,
2460637.500000000, A.D. 2024-Nov-23 00:00:00.0000, -4.299550368700648E+08, -9.908869597005424E+07, 6.071765726711009E+06,
2460644.500000000, A.D. 2024-Nov-30 00:00:00.0000, -4.282929845477681E+08, -1.097305624143847E+08, 6.285765288361683E+06,
2460651.500000000, A.D. 2024-Dec-07 00:00:00.0000, -4.263904606585819E+08, -1.203108734717345E+08, 6.496236539894469E+06,
2460658.500000000, A.D. 2024-Dec-14 00:00:00.0000, -4.242500111914462E+08, -1.308241099288835E+08, 6.703083516790912E+06,
2460665.500000000, A.D. 2024-Dec-21 00:00:00.0000, -4.218743058726844E+08, -1.412648627120158E+08, 6.906213941622220E+06,
2460672.500000000, A.D. 2024-Dec-28 00:00:00.0000, -4.192661347529638E+08, -1.516278362292180E+08, 7.105539303793609E+06,
2460679.500000000, A.D. 2025-Jan-04 00:00:00.0000, -4.164284025939870E+08, -1.619078518129177E+08, 7.300974701485559E+06,
2460686.500000000, A.D. 2025-Jan-11 00:00:00.0000, -4.133641228868011E+08, -1.720998496080180E+08, 7.492438749136142E+06,
2460693.500000000, A.D. 2025-Jan-18 00:00:00.0000, -4.100764124278700E+08, -1.821988898319443E+08, 7.679853559971169E+06,
2460700.500000000, A.D. 2025-Jan-25 00:00:00.0000, -4.065684862193666E+08, -1.922001538899908E+08, 7.863144742861420E+06,
2460707.500000000, A.D. 2025-Feb-01 00:00:00.0000, -4.028436525144081E+08, -2.020989453849252E+08, 8.042241394130841E+06,
2460714.500000000, A.D. 2025-Feb-08 00:00:00.0000, -3.989053079581581E+08, -2.118906910096992E+08, 8.217076081098840E+06,
2460721.500000000, A.D. 2025-Feb-15 00:00:00.0000, -3.947569328041364E+08, -2.215709413518804E+08, 8.387584813586980E+06,
$$EOE